{"type": "FeatureCollection", "features": [ {"type": "Feature", "properties": {"norad_id": 66586, "name": "TJS-21", "group": "last-30-days", "lat": -12.605568898306748, "lon": 156.54442743188923, "alt_km": 5884.842619502798, "timestamp": "2025-12-06T05:40:08.012243+00:00", "meta": {"OBJECT_NAME": "TJS-21", "OBJECT_ID": "2025-269A", "EPOCH": "2025-12-05T05:53:45.339360", "MEAN_MOTION": 2.00559462, "ECCENTRICITY": 0.6805129, "INCLINATION": 63.2734, "RA_OF_ASC_NODE": 163.1383, "ARG_OF_PERICENTER": 269.8052, "MEAN_ANOMALY": 18.6619, "EPHEMERIS_TYPE": 0, "CLASSIFICATION_TYPE": "U", "NORAD_CAT_ID": 66586, "ELEMENT_SET_NO": 999, "REV_AT_EPOCH": 29, "BSTAR": -0.017799, "MEAN_MOTION_DOT": 1.125e-05, "MEAN_MOTION_DDOT": 0}, "tle": {"line1": "1 66586U 25269A   25339.24566365  .00001125  00000+0 -17799-1 0  9997", "line2": "2 66586  63.2734 163.1383 6805129 269.8052  18.6619  2.00559462   291"}}, "geometry": {"type": "Point", "coordinates": [156.54442743188923, -12.605568898306748]}}, {"type": "Feature", "properties": {"norad_id": 66587, "name": "CZ-3B R/B", "group": "last-30-days", "lat": 49.88208501233017, "lon": -116.76375841074214, "alt_km": 25871.25417109351, "timestamp": "2025-12-06T05:40:08.012258+00:00", "meta": {"OBJECT_NAME": "CZ-3B R/B", "OBJECT_ID": "2025-269B", "EPOCH": "2025-12-02T10:16:46.437600", "MEAN_MOTION": 2.0223182, "ECCENTRICITY": 0.75203475, "INCLINATION": 51.3575, "RA_OF_ASC_NODE": 172.0321, "ARG_OF_PERICENTER": 226.8728, "MEAN_ANOMALY": 39.3228, "EPHEMERIS_TYPE": 0, "CLASSIFICATION_TYPE": "U", "NORAD_CAT_ID": 66587, "ELEMENT_SET_NO": 999, "REV_AT_EPOCH": 24, "BSTAR": 0.0019543247, "MEAN_MOTION_DOT": 0.00047329, "MEAN_MOTION_DDOT": -2.45602e-07}, "tle": {"line1": "1 66587U 25269B   25336.42831525  .00047329 -24560-6  19543-2 0  9998", "line2": "2 66587  51.3575 172.0321 7520347 226.8728  39.3228  2.02231820   242"}}, "geometry": {"type": "Point", "coordinates": [-116.76375841074214, 49.88208501233017]}}, {"type": "Feature", "properties": {"norad_id": 66588, "name": "STARLINK-36076", "group": "last-30-days", "lat": -37.39542896236691, "lon": 106.27999621413746, "alt_km": 360.1588835180082, "timestamp": "2025-12-06T05:40:08.012274+00:00", "meta": {"OBJECT_NAME": "STARLINK-36076", "OBJECT_ID": "2025-270A", "EPOCH": "2025-12-05T06:00:02.000160", "MEAN_MOTION": 15.74051196, "ECCENTRICITY": 0.00018858, "INCLINATION": 42.9988, "RA_OF_ASC_NODE": 237.1138, "ARG_OF_PERICENTER": 274.4198, "MEAN_ANOMALY": 140.5921, "EPHEMERIS_TYPE": 0, "CLASSIFICATION_TYPE": "U", "NORAD_CAT_ID": 66588, "ELEMENT_SET_NO": 999, "REV_AT_EPOCH": 319, "BSTAR": -0.014694803, "MEAN_MOTION_DOT": -0.01882674, "MEAN_MOTION_DDOT": 0}, "tle": {"line1": "1 66588U 25270A   25339.25002315 -.01882674  00000+0 -14695-1 0  9992", "line2": "2 66588  42.9988 237.1138 0001885 274.4198 140.5921 15.74051196  3191"}}, "geometry": {"type": "Point", "coordinates": [106.27999621413746, -37.39542896236691]}}, {"type": "Feature", "properties": {"norad_id": 66589, "name": "STARLINK-35447", "group": "last-30-days", "lat": -38.80644721451922, "lon": 110.8107835709728, "alt_km": 360.2103869790544, "timestamp": "2025-12-06T05:40:08.012285+00:00", "meta": {"OBJECT_NAME": "STARLINK-35447", "OBJECT_ID": "2025-270B", "EPOCH": "2025-12-05T06:00:02.000160", "MEAN_MOTION": 15.74047444, "ECCENTRICITY": 0.00016976, "INCLINATION": 42.9987, "RA_OF_ASC_NODE": 237.1045, "ARG_OF_PERICENTER": 272.8938, "MEAN_ANOMALY": 145.9552, "EPHEMERIS_TYPE": 0, "CLASSIFICATION_TYPE": "U", "NORAD_CAT_ID": 66589, "ELEMENT_SET_NO": 999, "REV_AT_EPOCH": 330, "BSTAR": -0.014658205, "MEAN_MOTION_DOT": -0.01878169, "MEAN_MOTION_DDOT": 0}, "tle": {"line1": "1 66589U 25270B   25339.25002315 -.01878169  00000+0 -14658-1 0  9996", "line2": "2 66589  42.9987 237.1045 0001697 272.8938 145.9552 15.74047444  3306"}}, "geometry": {"type": "Point", "coordinates": [110.8107835709728, -38.80644721451922]}}, {"type": "Feature", "properties": {"norad_id": 66590, "name": "STARLINK-35429", "group": "last-30-days", "lat": -38.120740819787045, "lon": 108.5165120641467, "alt_km": 360.2614664254488, "timestamp": "2025-12-06T05:40:08.012295+00:00", "meta": {"OBJECT_NAME": "STARLINK-35429", "OBJECT_ID": "2025-270C", "EPOCH": "2025-12-05T06:00:02.000160", "MEAN_MOTION": 15.74051532, "ECCENTRICITY": 0.00017453, "INCLINATION": 42.9989, "RA_OF_ASC_NODE": 237.1092, "ARG_OF_PERICENTER": 275.2855, "MEAN_ANOMALY": 141.6451, "EPHEMERIS_TYPE": 0, "CLASSIFICATION_TYPE": "U", "NORAD_CAT_ID": 66590, "ELEMENT_SET_NO": 999, "REV_AT_EPOCH": 330, "BSTAR": -0.014704023, "MEAN_MOTION_DOT": -0.01883591, "MEAN_MOTION_DDOT": 0}, "tle": {"line1": "1 66590U 25270C   25339.25002315 -.01883591  00000+0 -14704-1 0  9995", "line2": "2 66590  42.9989 237.1092 0001745 275.2855 141.6451 15.74051532  3305"}}, "geometry": {"type": "Point", "coordinates": [108.5165120641467, -38.120740819787045]}}, {"type": "Feature", "properties": {"norad_id": 66591, "name": "STARLINK-36058", "group": "last-30-days", "lat": -39.43849841876808, "lon": 113.1176616035218, "alt_km": 360.31594801779556, "timestamp": "2025-12-06T05:40:08.012305+00:00", "meta": {"OBJECT_NAME": "STARLINK-36058", "OBJECT_ID": "2025-270D", "EPOCH": "2025-12-05T06:00:02.000160", "MEAN_MOTION": 15.74053017, "ECCENTRICITY": 0.00017398, "INCLINATION": 42.9987, "RA_OF_ASC_NODE": 237.0996, "ARG_OF_PERICENTER": 277.759, "MEAN_ANOMALY": 143.0039, "EPHEMERIS_TYPE": 0, "CLASSIFICATION_TYPE": "U", "NORAD_CAT_ID": 66591, "ELEMENT_SET_NO": 999, "REV_AT_EPOCH": 319, "BSTAR": -0.014712562, "MEAN_MOTION_DOT": -0.0188464, "MEAN_MOTION_DDOT": 0}, "tle": {"line1": "1 66591U 25270D   25339.25002315 -.01884640  00000+0 -14713-1 0  9992", "line2": "2 66591  42.9987 237.0996 0001739 277.7590 143.0039 15.74053017  3197"}}, "geometry": {"type": "Point", "coordinates": [113.1176616035218, -39.43849841876808]}}, {"type": "Feature", "properties": {"norad_id": 66592, "name": "STARLINK-36066", "group": "last-30-days", "lat": -40.0297611871444, "lon": 115.48982559249231, "alt_km": 360.29212519106113, "timestamp": "2025-12-06T05:40:08.012317+00:00", "meta": {"OBJECT_NAME": "STARLINK-36066", "OBJECT_ID": "2025-270E", "EPOCH": "2025-12-05T06:00:02.000160", "MEAN_MOTION": 15.74046486, "ECCENTRICITY": 0.00017231, "INCLINATION": 42.9987, "RA_OF_ASC_NODE": 237.0948, "ARG_OF_PERICENTER": 277.3674, "MEAN_ANOMALY": 145.3184, "EPHEMERIS_TYPE": 0, "CLASSIFICATION_TYPE": "U", "NORAD_CAT_ID": 66592, "ELEMENT_SET_NO": 999, "REV_AT_EPOCH": 309, "BSTAR": -0.01466734, "MEAN_MOTION_DOT": -0.01879138, "MEAN_MOTION_DDOT": 0}, "tle": {"line1": "1 66592U 25270E   25339.25002315 -.01879138  00000+0 -14667-1 0  9997", "line2": "2 66592  42.9987 237.0948 0001723 277.3674 145.3184 15.74046486  3094"}}, "geometry": {"type": "Point", "coordinates": [115.48982559249231, -40.0297611871444]}}, {"type": "Feature", "properties": {"norad_id": 66593, "name": "STARLINK-36031", "group": "last-30-days", "lat": -40.56910558879696, "lon": 117.88923352074633, "alt_km": 360.3121882120622, "timestamp": "2025-12-06T05:40:08.012328+00:00", "meta": {"OBJECT_NAME": "STARLINK-36031", "OBJECT_ID": "2025-270F", "EPOCH": "2025-12-05T06:00:02.000160", "MEAN_MOTION": 15.74043804, "ECCENTRICITY": 0.00017468, "INCLINATION": 42.9988, "RA_OF_ASC_NODE": 237.0898, "ARG_OF_PERICENTER": 279.2675, "MEAN_ANOMALY": 145.3377, "EPHEMERIS_TYPE": 0, "CLASSIFICATION_TYPE": "U", "NORAD_CAT_ID": 66593, "ELEMENT_SET_NO": 999, "REV_AT_EPOCH": 319, "BSTAR": -0.014658096, "MEAN_MOTION_DOT": -0.01877941, "MEAN_MOTION_DDOT": 0}, "tle": {"line1": "1 66593U 25270F   25339.25002315 -.01877941  00000+0 -14658-1 0  9998", "line2": "2 66593  42.9988 237.0898 0001746 279.2675 145.3377 15.74043804  3193"}}, "geometry": {"type": "Point", "coordinates": [117.88923352074633, -40.56910558879696]}}, {"type": "Feature", "properties": {"norad_id": 66594, "name": "STARLINK-36032", "group": "last-30-days", "lat": -41.057174399646804, "lon": 120.3240608199693, "alt_km": 360.3307442034038, "timestamp": "2025-12-06T05:40:08.012337+00:00", "meta": {"OBJECT_NAME": "STARLINK-36032", "OBJECT_ID": "2025-270G", "EPOCH": "2025-12-05T06:00:02.000160", "MEAN_MOTION": 15.74052086, "ECCENTRICITY": 0.00015872, "INCLINATION": 42.9987, "RA_OF_ASC_NODE": 237.0854, "ARG_OF_PERICENTER": 274.5611, "MEAN_ANOMALY": 151.9562, "EPHEMERIS_TYPE": 0, "CLASSIFICATION_TYPE": "U", "NORAD_CAT_ID": 66594, "ELEMENT_SET_NO": 999, "REV_AT_EPOCH": 293, "BSTAR": -0.014726793, "MEAN_MOTION_DOT": -0.01886013, "MEAN_MOTION_DDOT": 0}, "tle": {"line1": "1 66594U 25270G   25339.25002315 -.01886013  00000+0 -14727-1 0  9996", "line2": "2 66594  42.9987 237.0854 0001587 274.5611 151.9562 15.74052086  2938"}}, "geometry": {"type": "Point", "coordinates": [120.3240608199693, -41.057174399646804]}}, {"type": "Feature", "properties": {"norad_id": 66595, "name": "STARLINK-35711", "group": "last-30-days", "lat": -41.49420157873052, "lon": 122.79804296489672, "alt_km": 360.38520804286236, "timestamp": "2025-12-06T05:40:08.012350+00:00", "meta": {"OBJECT_NAME": "STARLINK-35711", "OBJECT_ID": "2025-270H", "EPOCH": "2025-12-05T06:00:02.000160", "MEAN_MOTION": 15.74049094, "ECCENTRICITY": 0.00016099, "INCLINATION": 42.9987, "RA_OF_ASC_NODE": 237.0794, "ARG_OF_PERICENTER": 279.0788, "MEAN_ANOMALY": 149.358, "EPHEMERIS_TYPE": 0, "CLASSIFICATION_TYPE": "U", "NORAD_CAT_ID": 66595, "ELEMENT_SET_NO": 999, "REV_AT_EPOCH": 330, "BSTAR": -0.014705838, "MEAN_MOTION_DOT": -0.01883495, "MEAN_MOTION_DDOT": 0}, "tle": {"line1": "1 66595U 25270H   25339.25002315 -.01883495  00000+0 -14706-1 0  9995", "line2": "2 66595  42.9987 237.0794 0001609 279.0788 149.3580 15.74049094  3300"}}, "geometry": {"type": "Point", "coordinates": [122.79804296489672, -41.49420157873052]}}]}